NORAD_CAT_ID,OBJECT_NAME,OBJECT_TYPE,EPOCH,MEAN_MOTION,ECCENTRICITY,INCLINATION,RA_OF_ASC_NODE,ARG_OF_PERICENTER,MEAN_ANOMALY,BSTAR,MEAN_MOTION_DOT,MEAN_MOTION_DDOT,TLE_LINE0,TLE_LINE1,TLE_LINE2,SEMIMAJOR_AXIS,PERIOD,APOGEE,PERIGEE,DECAYED
53568.0,STARLINK-4583,PAYLOAD,2023-02-22 06:59:34,15.08841715,0.0001164,53.2178,3.2507,104.5479,255.5642,0.00010056,1.313e-05,0.0,0 STARLINK-4583,1 53568U 22101AT  23053.29136659  .00001313  00000-0  10056-3 0  9990,2 53568  53.2178   3.2507 0001164 104.5479 255.5642 15.08841715 29352,6917.875,95.437,540.545,538.935,0.0
53568.0,STARLINK-4583,PAYLOAD,2023-02-22 21:18:04,15.08824673,0.0001351,53.2187,0.5721,83.5131,276.6015,-7.1738e-05,-1.429e-05,0.0,0 STARLINK-4583,1 53568U 22101AT  23053.88754825 -.00001429  00000-0 -71738-4 0  9991,2 53568  53.2187   0.5721 0001351  83.5131 276.6015 15.08824673 29441,6917.927,95.439,540.727,538.858,0.0
53568.0,STARLINK-4583,PAYLOAD,2023-02-23 00:28:50,15.08827893,0.0001195,53.2192,359.9769,84.2195,275.8933,-5.2401e-05,-1.121e-05,0.0,0 STARLINK-4583,1 53568U 22101AT  23054.02002585 -.00001121  00000-0 -52401-4 0  9992,2 53568  53.2192 359.9769 0001195  84.2195 275.8933 15.08827893 28776,6917.917,95.438,540.609,538.956,0.0
53568.0,STARLINK-4583,PAYLOAD,2023-02-23 06:50:22,15.08834465,0.000146,53.2194,358.7879,81.4331,278.6826,2.8262e-05,1.62e-06,0.0,0 STARLINK-4583,1 53568U 22101AT  23054.28498087  .00000162  00000-0  28262-4 0  9996,2 53568  53.2194 358.7879 0001460  81.4331 278.6826 15.08834465 28813,6917.897,95.438,540.772,538.752,0.0
53568.0,STARLINK-4583,PAYLOAD,2023-02-23 21:08:50,15.08841776,0.0001459,53.219,356.1133,82.0259,278.0899,8.1865e-05,1.015e-05,0.0,0 STARLINK-4583,1 53568U 22101AT  23054.88113459  .00001015  00000-0  81865-4 0  9995,2 53568  53.2190 356.1133 0001459  82.0259 278.0899 15.08841776 28905,6917.875,95.437,540.749,538.731,0.0
53568.0,STARLINK-4583,PAYLOAD,2023-02-24 05:05:44,15.0886189,0.000134,53.2183,354.625,77.3588,282.7554,0.00013547,1.87e-05,0.0,0 STARLINK-4583,1 53568U 22101AT  23055.21231824  .00001870  00000-0  13547-3 0  9990,2 53568  53.2183 354.6250 0001340  77.3588 282.7554 15.08861890 28955,6917.813,95.436,540.605,538.751,0.0
53568.0,STARLINK-4583,PAYLOAD,2023-02-24 19:24:14,15.08825332,0.0001344,53.2188,351.9492,97.4823,262.6322,4.5318e-05,4.33e-06,0.0,0 STARLINK-4583,1 53568U 22101AT  23055.80850400  .00000433  00000-0  45318-4 0  9998,2 53568  53.2188 351.9492 0001344  97.4823 262.6322 15.08825332 29049,6917.925,95.438,540.72,538.86,0.0
53568.0,STARLINK-4583,PAYLOAD,2023-02-25 03:21:10,15.08832769,0.0001439,53.219,350.463,93.7231,266.3926,-1.6193e-05,-5.46e-06,0.0,0 STARLINK-4583,1 53568U 22101AT  23056.13970379 -.00000546  00000-0 -16193-4 0  9999,2 53568  53.2190 350.4630 0001439  93.7231 266.3926 15.08832769 29781,6917.902,95.438,540.763,538.772,0.0
53568.0,STARLINK-4583,PAYLOAD,2023-02-25 19:15:01,15.08839528,0.0001482,53.219,347.4898,101.2415,258.8743,-4.0501e-05,-9.32e-06,0.0,0 STARLINK-4583,1 53568U 22101AT  23056.80210075 -.00000932  00000-0 -40501-4 0  9992,2 53568  53.2190 347.4898 0001482 101.2415 258.8743 15.08839528 29198,6917.882,95.438,540.772,538.722,0.0
53568.0,STARLINK-4583,PAYLOAD,2023-02-26 01:36:32,15.0885676,0.0001367,53.219,346.3002,92.7329,267.382,-5.898e-06,-3.82e-06,0.0,0 STARLINK-4583,1 53568U 22101AT  23057.06704810 -.00000382  00000-0 -58980-5 0  9996,2 53568  53.2190 346.3002 0001367  92.7329 267.3820 15.08856760 29236,6917.829,95.436,540.64,538.748,0.0
53568.0,STARLINK-4583,PAYLOAD,2023-02-27 01:27:19,15.08848259,0.0001246,53.2184,341.84,91.228,268.8855,0.00014965,2.095e-05,0.0,0 STARLINK-4583,1 53568U 22101AT  23058.06064241  .00002095  00000-0  14965-3 0  9998,2 53568  53.2184 341.8400 0001246  91.2280 268.8855 15.08848259 29381,6917.855,95.437,540.582,538.858,0.0
53568.0,STARLINK-4583,PAYLOAD,2023-02-27 18:56:33,15.08858501,0.0001266,53.2185,338.5676,94.6017,265.512,3.3609e-05,2.47e-06,0.0,0 STARLINK-4583,1 53568U 22101AT  23058.78927555  .00000247  00000-0  33609-4 0  9997,2 53568  53.2185 338.5676 0001266  94.6017 265.5120 15.08858501 30187,6917.824,95.436,540.565,538.813,0.0
53568.0,STARLINK-4583,PAYLOAD,2023-02-28 01:18:04,15.08875759,0.0001162,53.218,337.3797,72.6597,287.4523,0.00017117,2.44e-05,0.0,0 STARLINK-4583,1 53568U 22101AT  23059.05421641  .00002440  00000-0  17117-3 0  9995,2 53568  53.2180 337.3797 0001162  72.6597 287.4523 15.08875759 29538,6917.771,95.435,540.44,538.832,0.0
53568.0,STARLINK-4583,PAYLOAD,2023-02-28 21:58:08,15.08830486,0.0001101,53.2185,333.5131,40.5384,319.569,-0.00022876,-3.926e-05,0.0,0 STARLINK-4583,1 53568U 22101AT  23059.91537889 -.00003926  00000-0 -22876-3 0  9992,2 53568  53.2185 333.5131 0001101  40.5384 319.5690 15.08830486 30356,6917.909,95.438,540.536,539.013,0.0
53568.0,STARLINK-4583,PAYLOAD,2023-03-01 01:08:55,15.0882602,0.0001058,53.2184,332.9191,86.3139,273.7974,-0.0002656,-4.511e-05,0.0,0 STARLINK-4583,1 53568U 22101AT  23060.04786204 -.00004511  00000-0 -26560-3 0  9990,2 53568  53.2184 332.9191 0001058  86.3139 273.7974 15.08826020 29680,6917.923,95.438,540.52,539.056,0.0
53568.0,STARLINK-4583,PAYLOAD,2023-03-01 05:55:04,15.0882966,0.0001123,53.2188,332.0269,89.2726,270.8395,-0.00021948,-3.778e-05,0.0,0 STARLINK-4583,1 53568U 22101AT  23060.24657970 -.00003778  00000-0 -21948-3 0  9998,2 53568  53.2188 332.0269 0001123  89.2726 270.8395 15.08829660 29710,6917.912,95.438,540.554,539.0,0.0
53568.0,STARLINK-4583,PAYLOAD,2023-03-01 21:48:55,15.08844653,0.0001165,53.2187,329.0539,77.2093,282.9029,-0.00015932,-2.823e-05,0.0,0 STARLINK-4583,1 53568U 22101AT  23060.90897190 -.00002823  00000-0 -15932-3 0  9997,2 53568  53.2187 329.0539 0001165  77.2093 282.9029 15.08844653 30501,6917.866,95.437,540.537,538.925,0.0
53568.0,STARLINK-4583,PAYLOAD,2023-03-02 02:35:03,15.08857073,9.87e-05,53.2181,328.1617,68.3636,291.7461,-9.6184e-05,-1.819e-05,0.0,0 STARLINK-4583,1 53568U 22101AT  23061.10767826 -.00001819  00000-0 -96184-4 0  9995,2 53568  53.2181 328.1617 0000987  68.3636 291.7461 15.08857073 29840,6917.828,95.436,540.376,539.01,0.0
53568.0,STARLINK-4583,PAYLOAD,2023-03-02 04:10:26,15.0885843,0.0001173,53.219,327.8642,86.5718,273.5409,-3.2751e-05,-8.09e-06,0.0,0 STARLINK-4583,1 53568U 22101AT  23061.17391737 -.00000809  00000-0 -32751-4 0  9994,2 53568  53.2190 327.8642 0001173  86.5718 273.5409 15.08858430 30542,6917.824,95.436,540.501,538.878,0.0
53568.0,STARLINK-4583,PAYLOAD,2023-03-03 02:25:51,15.08828092,0.000126,53.2188,323.7012,137.8419,222.267,0.00017343,2.472e-05,0.0,0 STARLINK-4583,1 53568U 22101AT  23062.10129403  .00002472  00000-0  17343-3 0  9992,2 53568  53.2188 323.7012 0001260 137.8419 222.2670 15.08828092 29999,6917.917,95.438,540.653,538.91,0.0
53568.0,STARLINK-4583,PAYLOAD,2023-03-03 21:30:28,15.08854438,0.0001332,53.2188,320.1353,91.0644,269.05,7.3444e-05,8.82e-06,0.0,0 STARLINK-4583,1 53568U 22101AT  23062.89616590  .00000882  00000-0  73444-4 0  9994,2 53568  53.2188 320.1353 0001332  91.0644 269.0500 15.08854438 30805,6917.836,95.437,540.623,538.78,0.0
53568.0,STARLINK-4583,PAYLOAD,2023-03-04 02:16:36,15.08876549,8.66e-05,53.2186,319.2416,104.1589,255.9499,0.00023542,3.465e-05,0.0,0 STARLINK-4583,1 53568U 22101AT  23063.09486279  .00003465  00000-0  23542-3 0  9999,2 53568  53.2186 319.2416 0000866 104.1589 255.9499 15.08876549 30142,6917.769,95.435,540.233,539.035,0.0
53568.0,STARLINK-4583,PAYLOAD,2023-03-05 02:07:27,15.0883175,0.0001044,53.2184,314.7772,111.5913,248.5191,-0.00016232,-2.87e-05,0.0,0 STARLINK-4583,1 53568U 22101AT  23064.08850795 -.00002870  00000-0 -16232-3 0  9996,2 53568  53.2184 314.7772 0001044 111.5913 248.5191 15.08831750 30295,6917.906,95.438,540.493,539.048,0.0
53568.0,STARLINK-4583,PAYLOAD,2023-03-05 21:12:03,15.08847525,9.28e-05,53.218,311.2164,73.1579,286.9515,-9.8297e-05,-1.852e-05,0.0,0 STARLINK-4583,1 53568U 22101AT  23064.88337887 -.00001852  00000-0 -98297-4 0  9997,2 53568  53.2180 311.2164 0000928  73.1579 286.9515 15.08847525 30416,6917.857,95.437,540.364,539.08,0.0
53568.0,STARLINK-4583,PAYLOAD,2023-03-05 22:47:26,15.08854672,7.05e-05,53.218,310.913,79.7968,280.3104,-0.00018855,-3.288e-05,0.0,0 STARLINK-4583,1 53568U 22101AT  23064.94961511 -.00003288  00000-0 -18855-3 0  9997,2 53568  53.2180 310.9130 0000705  79.7968 280.3104 15.08854672 31113,6917.836,95.437,540.188,539.213,0.0
53568.0,STARLINK-4583,PAYLOAD,2023-03-06 01:58:11,15.08874191,8.45e-05,53.2187,310.3187,87.6883,272.4206,-2.4301e-05,-6.75e-06,0.0,0 STARLINK-4583,1 53568U 22101AT  23065.08207407 -.00000675  00000-0 -24301-4 0  9991,2 53568  53.2187 310.3187 0000845  87.6883 272.4206 15.08874191 30443,6917.776,95.435,540.225,539.056,0.0
53568.0,STARLINK-4583,PAYLOAD,2023-03-06 22:38:14,15.08829076,0.0001122,53.2177,306.4539,86.8215,273.2905,4.1878e-05,3.79e-06,0.0,0 STARLINK-4583,1 53568U 22101AT  23065.94322657  .00000379  00000-0  41878-4 0  9998,2 53568  53.2177 306.4539 0001122  86.8215 273.2905 15.08829076 31266,6917.914,95.438,540.555,539.003,0.0
53568.0,STARLINK-4583,PAYLOAD,2023-03-07 01:49:00,15.08829324,0.0001314,53.2183,305.857,88.9378,271.1765,8.5738e-05,1.077e-05,0.0,0 STARLINK-4583,1 53568U 22101AT  23066.07570549  .00001077  00000-0  85738-4 0  9997,2 53568  53.2183 305.8570 0001314  88.9378 271.1765 15.08829324 30599,6917.913,95.438,540.687,538.869,0.0
53568.0,STARLINK-4583,PAYLOAD,2023-03-07 22:29:00,15.08849698,0.0002229,53.2158,301.9918,81.2331,278.8914,9.957e-05,1.297e-05,0.0,0 STARLINK-4583,1 53568U 22101AT  23066.93681228  .00001297  00000-0  99570-4 0  9992,2 53568  53.2158 301.9918 0002229  81.2331 278.8914 15.08849698 31413,6917.851,95.437,541.258,538.174,0.0
53568.0,STARLINK-4583,PAYLOAD,2023-03-08 00:04:23,15.08857306,0.0001337,53.218,301.696,66.3242,293.789,-5.0648e-05,-1.094e-05,0.0,0 STARLINK-4583,1 53568U 22101AT  23067.00305471 -.00001094  00000-0 -50648-4 0  9994,2 53568  53.2180 301.6960 0001337  66.3242 293.7890 15.08857306 30734,6917.827,95.436,540.617,538.768,0.0
